{"type":"FeatureCollection","features":[{"type":"Feature","properties":{},"geometry":{"coordinates":[[[14.153108362470675,57.78660878724227],[14.152965785077583,57.78635797215969],[14.153650156566897,57.786046350993104],[14.153749960742061,57.78552190929872],[14.154006600050877,57.785339493010525],[14.153265197604355,57.78408535607704],[14.152423990981305,57.78292999137881],[14.151953485582908,57.78218506558866],[14.151069505741987,57.78153134253941],[14.150646494759343,57.781249254200446],[14.150081658291498,57.78062286850641],[14.150081658214333,57.780165118186346],[14.150387824902253,57.77984945404245],[14.150850995952567,57.77946999704173],[14.150602467906566,57.779066441464835],[14.151201194563441,57.7788496037698],[14.151878998324435,57.77933748675258],[14.153415353517573,57.77903030193954],[14.154217421303088,57.77888574347594],[14.159481697184901,57.77782563039551],[14.159184129627022,57.777050536217956],[14.15976241966112,57.77697009621036],[14.160353281218761,57.777566688670305],[14.163056158551626,57.77723822887222],[14.166197420200461,57.778447347062524],[14.172267161291956,57.77814672282861],[14.172468305652018,57.77744959130433],[14.174152889664583,57.77773112680916],[14.174804401364042,57.77739641954929],[14.175357548353276,57.777758393899546],[14.174484840435923,57.77826787483886],[14.174170552373994,57.778582919189944],[14.173868835834554,57.77938727527899],[14.17424598150862,57.77964198430519],[14.176911144274186,57.77961517291348],[14.17688600122932,57.77989669153473],[14.174522555003193,57.779970422239614],[14.174608685527346,57.780322786064175],[14.174973259678978,57.780430029410695],[14.176129839747148,57.78042332671089],[14.176104696702282,57.780604299169056],[14.174834972932246,57.780604299169056],[14.17502354576871,57.781375097628626],[14.169994936777073,57.78203864138388],[14.169245791802183,57.78336812200928],[14.170741802977119,57.78336812200928],[14.170880089723852,57.783736738586185],[14.16908236200939,57.78393780058741],[14.167649208446619,57.78403833116795],[14.166090339658325,57.784138861468904],[14.163890326129831,57.78446725850847],[14.161451450768027,57.78475544119755],[14.158894835419147,57.78518660341257],[14.155651382618316,57.78614495041177],[14.153108362470675,57.78660878724227]]],"type":"Polygon"}}]}